{
  "type": "FeatureCollection",
  "features": [
    {
      "type": "Feature",
      "id": 1,
      "properties": {"name": "Town Hall", "levels": 3},
      "geometry": {"type": "Polygon", "coordinates": [[[10.0010, 50.0010], [10.0016, 50.0010], [10.0016, 50.0014], [10.0010, 50.0014], [10.0010, 50.0010]]]}
    },
    {
      "type": "Feature",
      "id": 2,
      "properties": {"name": "School", "levels": 2, "heated": true},
      "geometry": {
        "type": "MultiPolygon",
        "coordinates": [
          [[[10.0030, 50.0020], [10.0038, 50.0020], [10.0038, 50.0024], [10.0030, 50.0024], [10.0030, 50.0020]]],
          [[[10.0040, 50.0020], [10.0043, 50.0020], [10.0043, 50.0022], [10.0040, 50.0022], [10.0040, 50.0020]]]
        ]
      }
    },
    {
      "type": "Feature",
      "id": 3,
      "properties": {"name": "Cloister", "levels": 1},
      "geometry": {
        "type": "Polygon",
        "coordinates": [
          [[10.0050, 50.0030], [10.0060, 50.0030], [10.0060, 50.0040], [10.0050, 50.0040], [10.0050, 50.0030]],
          [[10.0053, 50.0033], [10.0053, 50.0037], [10.0057, 50.0037], [10.0057, 50.0033], [10.0053, 50.0033]]
        ]
      }
    },
    {
      "type": "Feature",
      "id": 4,
      "properties": {"name": "Barn"},
      "geometry": {"type": "Polygon", "coordinates": [[[10.2000, 50.2000], [10.2004, 50.2000], [10.2004, 50.2003], [10.2000, 50.2003], [10.2000, 50.2000]]]}
    }
  ]
}
