<?xml version='1.0' encoding='UTF-8'?>
<osm version="0.6" generator="miniverse example">
  <node id="1" version="1" lat="50.000" lon="10.000"/>
  <node id="2" version="1" lat="50.000" lon="10.004"/>
  <node id="3" version="1" lat="50.001" lon="10.008"/>
  <node id="4" version="1" lat="50.004" lon="10.004"/>
  <node id="5" version="1" lat="50.006" lon="10.005"/>
  <node id="6" version="1" lat="50.002" lon="10.001"/>
  <node id="7" version="1" lat="50.002" lon="10.002"/>
  <node id="8" version="1" lat="50.003" lon="10.002"/>
  <node id="9" version="1" lat="50.003" lon="10.001"/>
  <way id="101" version="1">
    <nd ref="1"/><nd ref="2"/><nd ref="3"/>
    <tag k="highway" v="primary"/><tag k="name" v="High Street"/><tag k="maxspeed" v="50"/>
  </way>
  <way id="102" version="1">
    <nd ref="2"/><nd ref="4"/><nd ref="5"/>
    <tag k="highway" v="residential"/><tag k="name" v="Mill Lane"/>
  </way>
  <way id="103" version="1">
    <nd ref="4"/><nd ref="8"/>
    <tag k="highway" v="footway"/>
  </way>
  <!-- Not a road: left out by the example's key. -->
  <way id="104" version="1">
    <nd ref="6"/><nd ref="7"/><nd ref="8"/><nd ref="9"/><nd ref="6"/>
    <tag k="building" v="yes"/>
  </way>
  <!-- Cut at the edge of the extract: node 99 is not in the file. -->
  <way id="105" version="1">
    <nd ref="5"/><nd ref="99"/>
    <tag k="highway" v="track"/>
  </way>
</osm>
